OBJECT B                
1 51825U 22019B   24304.82181746  .00041177  00000+0  14972-2 0  9999
2 51825  97.4153  14.9021 0013918 120.0814 240.1807 15.28047565147891
